{
  "type": "FeatureCollection",
  "features": [
    {
      "type": "Feature",
      "properties": {
        "norad_id": 55973,
        "name": "TIANMU-1 03",
        "group": "weather",
        "lat": -48.195358385975695,
        "lon": -23.812577386612535,
        "alt_km": 451.0930406823072,
        "timestamp": "2025-12-27T14:26:30.159281+00:00",
        "meta_object_name": "TIANMU-1 03",
        "meta_object_id": "2023-039A",
        "meta_epoch": "2025-12-27T07:13:12.932832",
        "meta_mean_motion": 15.41359239,
        "meta_eccentricity": 0.00036531,
        "meta_inclination": 97.5115,
        "meta_ra_of_asc_node": 164.3632,
        "meta_arg_of_pericenter": 18.1719,
        "meta_mean_anomaly": 341.9657,
        "meta_ephemeris_type": 0,
        "meta_classification_type": "U",
        "meta_norad_cat_id": 55973,
        "meta_element_set_no": 999,
        "meta_rev_at_epoch": 15430,
        "meta_bstar": 0.00041021115,
        "meta_mean_motion_dot": 0.00017049,
        "meta_mean_motion_ddot": 0,
        "tle_line1": "1 55973U 23039A   25361.30084413  .00017049  00000+0  41021-3 0  9997",
        "tle_line2": "2 55973  97.5115 164.3632 0003653  18.1719 341.9657 15.41359239154308"
      },
      "geometry": {
        "type": "Point",
        "coordinates": [
          -23.812577386612535,
          -48.195358385975695
        ]
      }
    },
    {
      "type": "Feature",
      "properties": {
        "norad_id": 55974,
        "name": "TIANMU-1 04",
        "group": "weather",
        "lat": 0.7185683937954158,
        "lon": 163.7630993337856,
        "alt_km": 441.20833314333686,
        "timestamp": "2025-12-27T14:26:30.159335+00:00",
        "meta_object_name": "TIANMU-1 04",
        "meta_object_id": "2023-039B",
        "meta_epoch": "2025-12-27T08:12:27.655200",
        "meta_mean_motion": 15.41705291,
        "meta_eccentricity": 0.0004253,
        "meta_inclination": 97.5045,
        "meta_ra_of_asc_node": 163.5908,
        "meta_arg_of_pericenter": 11.1584,
        "meta_mean_anomaly": 348.9756,
        "meta_ephemeris_type": 0,
        "meta_classification_type": "U",
        "meta_norad_cat_id": 55974,
        "meta_element_set_no": 999,
        "meta_rev_at_epoch": 15431,
        "meta_bstar": 0.00041978766,
        "meta_mean_motion_dot": 0.00017654,
        "meta_mean_motion_ddot": 0,
        "tle_line1": "1 55974U 23039B   25361.34198675  .00017654  00000+0  41979-3 0  9992",
        "tle_line2": "2 55974  97.5045 163.5908 0004253  11.1584 348.9756 15.41705291154319"
      },
      "geometry": {
        "type": "Point",
        "coordinates": [
          163.7630993337856,
          0.7185683937954158
        ]
      }
    },
    {
      "type": "Feature",
      "properties": {
        "norad_id": 55975,
        "name": "TIANMU-1 05",
        "group": "weather",
        "lat": 12.014991852703861,
        "lon": 162.7418667513885,
        "alt_km": 441.23422863108954,
        "timestamp": "2025-12-27T14:26:30.159362+00:00",
        "meta_object_name": "TIANMU-1 05",
        "meta_object_id": "2023-039C",
        "meta_epoch": "2025-12-27T08:09:24.640128",
        "meta_mean_motion": 15.41316873,
        "meta_eccentricity": 0.00038452,
        "meta_inclination": 97.5092,
        "meta_ra_of_asc_node": 164.0814,
        "meta_arg_of_pericenter": 38.111,
        "meta_mean_anomaly": 322.0408,
        "meta_ephemeris_type": 0,
        "meta_classification_type": "U",
        "meta_norad_cat_id": 55975,
        "meta_element_set_no": 999,
        "meta_rev_at_epoch": 15429,
        "meta_bstar": 0.00041737393,
        "meta_mean_motion_dot": 0.00017325,
        "meta_mean_motion_ddot": 0,
        "tle_line1": "1 55975U 23039C   25361.33986852  .00017325  00000+0  41737-3 0  9991",
        "tle_line2": "2 55975  97.5092 164.0814 0003845  38.1110 322.0408 15.41316873154292"
      },
      "geometry": {
        "type": "Point",
        "coordinates": [
          162.7418667513885,
          12.014991852703861
        ]
      }
    },
    {
      "type": "Feature",
      "properties": {
        "norad_id": 55976,
        "name": "TIANMU-1 06",
        "group": "weather",
        "lat": -8.51962435916557,
        "lon": 165.96053788331554,
        "alt_km": 442.8891192394667,
        "timestamp": "2025-12-27T14:26:30.159374+00:00",
        "meta_object_name": "TIANMU-1 06",
        "meta_object_id": "2023-039D",
        "meta_epoch": "2025-12-27T08:14:53.443968",
        "meta_mean_motion": 15.41756393,
        "meta_eccentricity": 0.00040895,
        "meta_inclination": 97.5103,
        "meta_ra_of_asc_node": 164.5626,
        "meta_arg_of_pericenter": 31.641,
        "meta_mean_anomaly": 328.5082,
        "meta_ephemeris_type": 0,
        "meta_classification_type": "U",
        "meta_norad_cat_id": 55976,
        "meta_element_set_no": 999,
        "meta_rev_at_epoch": 15431,
        "meta_bstar": 0.00042088599,
        "meta_mean_motion_dot": 0.0001773,
        "meta_mean_motion_ddot": 0,
        "tle_line1": "1 55976U 23039D   25361.34367412  .00017730  00000+0  42089-3 0  9999",
        "tle_line2": "2 55976  97.5103 164.5626 0004089  31.6410 328.5082 15.41756393154311"
      },
      "geometry": {
        "type": "Point",
        "coordinates": [
          165.96053788331554,
          -8.51962435916557
        ]
      }
    },
    {
      "type": "Feature",
      "properties": {
        "norad_id": 56232,
        "name": "FENGYUN 3G",
        "group": "weather",
        "lat": 46.03575560314172,
        "lon": -89.78576917749602,
        "alt_km": 406.39520031727807,
        "timestamp": "2025-12-27T14:26:30.159386+00:00",
        "meta_object_name": "FENGYUN 3G",
        "meta_object_id": "2023-055A",
        "meta_epoch": "2025-12-27T06:14:42.601056",
        "meta_mean_motion": 15.52188444,
        "meta_eccentricity": 0.00039228,
        "meta_inclination": 49.9927,
        "meta_ra_of_asc_node": 152.5311,
        "meta_arg_of_pericenter": 298.5758,
        "meta_mean_anomaly": 61.4814,
        "meta_ephemeris_type": 0,
        "meta_classification_type": "U",
        "meta_norad_cat_id": 56232,
        "meta_element_set_no": 999,
        "meta_rev_at_epoch": 15328,
        "meta_bstar": 0.00050895153,
        "meta_mean_motion_dot": 0.00031116,
        "meta_mean_motion_ddot": 0,
        "tle_line1": "1 56232U 23055A   25361.26021529  .00031116  00000+0  50895-3 0  9998",
        "tle_line2": "2 56232  49.9927 152.5311 0003922 298.5758  61.4814 15.52188444153283"
      },
      "geometry": {
        "type": "Point",
        "coordinates": [
          -89.78576917749602,
          46.03575560314172
        ]
      }
    },
    {
      "type": "Feature",
      "properties": {
        "norad_id": 57166,
        "name": "METEOR-M2 3",
        "group": "weather",
        "lat": 71.93525662521542,
        "lon": 27.109967999807104,
        "alt_km": 805.673358280188,
        "timestamp": "2025-12-27T14:26:30.159397+00:00",
        "meta_object_name": "METEOR-M2 3",
        "meta_object_id": "2023-091A",
        "meta_epoch": "2025-12-27T07:20:59.753760",
        "meta_mean_motion": 14.24027824,
        "meta_eccentricity": 0.00031512,
        "meta_inclination": 98.6357,
        "meta_ra_of_asc_node": 54.5898,
        "meta_arg_of_pericenter": 322.5193,
        "meta_mean_anomaly": 37.5766,
        "meta_ephemeris_type": 0,
        "meta_classification_type": "U",
        "meta_norad_cat_id": 57166,
        "meta_element_set_no": 999,
        "meta_rev_at_epoch": 13005,
        "meta_bstar": 2.469859e-05,
        "meta_mean_motion_dot": 1.3e-07,
        "meta_mean_motion_ddot": 0,
        "tle_line1": "1 57166U 23091A   25361.30624715  .00000013  00000+0  24699-4 0  9992",
        "tle_line2": "2 57166  98.6357  54.5898 0003151 322.5193  37.5766 14.24027824130056"
      },
      "geometry": {
        "type": "Point",
        "coordinates": [
          27.109967999807104,
          71.93525662521542
        ]
      }
    },
    {
      "type": "Feature",
      "properties": {
        "norad_id": 57399,
        "name": "TIANMU-1 07",
        "group": "weather",
        "lat": 62.87340295973184,
        "lon": 36.66210240254563,
        "alt_km": 471.74200055608344,
        "timestamp": "2025-12-27T14:26:30.159407+00:00",
        "meta_object_name": "TIANMU-1 07",
        "meta_object_id": "2023-101A",
        "meta_epoch": "2025-12-27T07:52:41.494656",
        "meta_mean_motion": 15.2828184,
        "meta_eccentricity": 0.00048492,
        "meta_inclination": 97.2857,
        "meta_ra_of_asc_node": 50.8561,
        "meta_arg_of_pericenter": 43.5812,
        "meta_mean_anomaly": 316.581,
        "meta_ephemeris_type": 0,
        "meta_classification_type": "U",
        "meta_norad_cat_id": 57399,
        "meta_element_set_no": 999,
        "meta_rev_at_epoch": 13538,
        "meta_bstar": 0.00028676274,
        "meta_mean_motion_dot": 7.831e-05,
        "meta_mean_motion_ddot": 0,
        "tle_line1": "1 57399U 23101A   25361.32825804  .00007831  00000+0  28676-3 0  9999",
        "tle_line2": "2 57399  97.2857  50.8561 0004849  43.5812 316.5810 15.28281840135389"
      },
      "geometry": {
        "type": "Point",
        "coordinates": [
          36.66210240254563,
          62.87340295973184
        ]
      }
    }
  ]
}